ATLAS CENTAUR R/B       
1 06155U 72065B   26095.44900954  .00001696  00000+0  23334-3 0  9993
2 06155  35.0006 148.9224 0034036 236.1034 123.6427 14.77768960845229
SL-8 R/B                
1 08459U 75112B   26095.07457678  .00000315  00000+0  11203-3 0  9996
2 08459  74.0620 330.3794 0014715  52.9529 307.2969 14.38219672635661
SL-3 R/B                
1 10114U 77057B   26095.45255954  .00016112  00000+0  32816-3 0  9997
2 10114  97.5805 268.5724 0007291 177.2397 182.8893 15.46313107672467
SEASAT 1                
1 10967U 78064A   26095.47307273  .00000472  00000+0  17011-3 0  9998
2 10967 108.0067 181.6957 0002735 271.9613  88.1219 14.46184974510384
SL-14 R/B               
1 11267U 79011B   26095.40811876  .00000938  00000+0  90031-4 0  9998
2 11267  82.5222  71.2098 0015257 333.6314  26.4127 14.91947038532761
SL-8 R/B                
1 11574U 79089B   26095.31001499  .00000441  00000+0  14125-3 0  9994
2 11574  74.0703  41.7632 0016491 210.6859 149.3335 14.42369823439945
SL-14 R/B               
1 11672U 80005B   26095.50586476  .00000808  00000+0  79097-4 0  9994
2 11672  82.5107 281.7911 0017213  75.5104 284.8024 14.90963968480484
SL-8 R/B                
1 12139U 81003B   26095.48074867  .00026697  00000+0  66332-3 0  9996
2 12139  82.9349 265.2248 0259537  85.5930 277.4903 15.12250511318729
SL-3 R/B                
1 12465U 81046B   26095.51402491  .00015237  00000+0  34623-3 0  9993
2 12465  81.2293 257.5103 0018054 286.6795  73.2466 15.42708300442568
SL-3 R/B                
1 12904U 81103B   26095.47226766  .00006178  00000+0  27118-3 0  9994
2 12904  81.1605 182.0136 0013122 191.5623 168.5310 15.21713827977303
SL-3 R/B                
1 13068U 82013B   26095.53552287  .00004399  00000+0  18865-3 0  9996
2 13068  81.1718 129.2994 0023536  89.9273 270.4656 15.22269503408433
SL-3 R/B                
1 13154U 82039B   26095.49154476  .00003567  00000+0  21474-3 0  9999
2 13154  81.1553 185.0553 0028137 234.9555 124.9031 15.10245505385688
