CCSDS_OMM_VERS = 2.0
CREATION_DATE  = 
ORIGINATOR     = 

OBJECT_NAME    = ATLAS CENTAUR R/B
OBJECT_ID      = 1972-065B
CENTER_NAME    = EARTH
REF_FRAME      = TEME
TIME_SYSTEM    = UTC
MEAN_ELEMENT_THEORY = SGP/SGP4

EPOCH          = 2026-04-05T10:46:34.424256
MEAN_MOTION    = 14.77768960
ECCENTRICITY   = .0034036
INCLINATION    = 35.0006
RA_OF_ASC_NODE = 148.9224
ARG_OF_PERICENTER = 236.1034
MEAN_ANOMALY   = 123.6427

EPHEMERIS_TYPE = 0
CLASSIFICATION_TYPE = U
NORAD_CAT_ID   = 6155
ELEMENT_SET_NO = 999
REV_AT_EPOCH   = 84522
BSTAR          = .23334E-3
MEAN_MOTION_DOT = .1696E-4
MEAN_MOTION_DDOT = 0

CCSDS_OMM_VERS = 2.0
CREATION_DATE  = 
ORIGINATOR     = 

OBJECT_NAME    = SL-8 R/B
OBJECT_ID      = 1975-112B
CENTER_NAME    = EARTH
REF_FRAME      = TEME
TIME_SYSTEM    = UTC
MEAN_ELEMENT_THEORY = SGP/SGP4

EPOCH          = 2026-04-05T01:47:23.433792
MEAN_MOTION    = 14.38219672
ECCENTRICITY   = .00147151
INCLINATION    = 74.0620
RA_OF_ASC_NODE = 330.3794
ARG_OF_PERICENTER = 52.9529
MEAN_ANOMALY   = 307.2969

EPHEMERIS_TYPE = 0
CLASSIFICATION_TYPE = U
NORAD_CAT_ID   = 8459
ELEMENT_SET_NO = 999
REV_AT_EPOCH   = 63566
BSTAR          = .1120289E-3
MEAN_MOTION_DOT = .315E-5
MEAN_MOTION_DDOT = 0

CCSDS_OMM_VERS = 2.0
CREATION_DATE  = 
ORIGINATOR     = 

OBJECT_NAME    = SL-3 R/B
OBJECT_ID      = 1977-057B
CENTER_NAME    = EARTH
REF_FRAME      = TEME
TIME_SYSTEM    = UTC
MEAN_ELEMENT_THEORY = SGP/SGP4

EPOCH          = 2026-04-05T10:51:41.144256
MEAN_MOTION    = 15.46313107
ECCENTRICITY   = .0007291
INCLINATION    = 97.5805
RA_OF_ASC_NODE = 268.5724
ARG_OF_PERICENTER = 177.2397
MEAN_ANOMALY   = 182.8893

EPHEMERIS_TYPE = 0
CLASSIFICATION_TYPE = U
NORAD_CAT_ID   = 10114
ELEMENT_SET_NO = 999
REV_AT_EPOCH   = 67246
BSTAR          = .32816E-3
MEAN_MOTION_DOT = .16112E-3
MEAN_MOTION_DDOT = 0

CCSDS_OMM_VERS = 2.0
CREATION_DATE  = 
ORIGINATOR     = 

OBJECT_NAME    = SEASAT 1
OBJECT_ID      = 1978-064A
CENTER_NAME    = EARTH
REF_FRAME      = TEME
TIME_SYSTEM    = UTC
MEAN_ELEMENT_THEORY = SGP/SGP4

EPOCH          = 2026-04-05T11:21:13.483872
MEAN_MOTION    = 14.46184974
ECCENTRICITY   = .0002735
INCLINATION    = 108.0067
RA_OF_ASC_NODE = 181.6957
ARG_OF_PERICENTER = 271.9613
MEAN_ANOMALY   = 88.1219

EPHEMERIS_TYPE = 0
CLASSIFICATION_TYPE = U
NORAD_CAT_ID   = 10967
ELEMENT_SET_NO = 999
REV_AT_EPOCH   = 51038
BSTAR          = .17011E-3
MEAN_MOTION_DOT = .472E-5
MEAN_MOTION_DDOT = 0

CCSDS_OMM_VERS = 2.0
CREATION_DATE  = 
ORIGINATOR     = 

OBJECT_NAME    = SL-14 R/B
OBJECT_ID      = 1979-011B
CENTER_NAME    = EARTH
REF_FRAME      = TEME
TIME_SYSTEM    = UTC
MEAN_ELEMENT_THEORY = SGP/SGP4

EPOCH          = 2026-04-05T09:47:41.460864
MEAN_MOTION    = 14.91947038
ECCENTRICITY   = .0015257
INCLINATION    = 82.5222
RA_OF_ASC_NODE = 71.2098
ARG_OF_PERICENTER = 333.6314
MEAN_ANOMALY   = 26.4127

EPHEMERIS_TYPE = 0
CLASSIFICATION_TYPE = U
NORAD_CAT_ID   = 11267
ELEMENT_SET_NO = 999
REV_AT_EPOCH   = 53276
BSTAR          = .90031E-4
MEAN_MOTION_DOT = .938E-5
MEAN_MOTION_DDOT = 0

CCSDS_OMM_VERS = 2.0
CREATION_DATE  = 
ORIGINATOR     = 

OBJECT_NAME    = SL-8 R/B
OBJECT_ID      = 1979-089B
CENTER_NAME    = EARTH
REF_FRAME      = TEME
TIME_SYSTEM    = UTC
MEAN_ELEMENT_THEORY = SGP/SGP4

EPOCH          = 2026-04-05T07:26:25.295136
MEAN_MOTION    = 14.42369823
ECCENTRICITY   = .0016491
INCLINATION    = 74.0703
RA_OF_ASC_NODE = 41.7632
ARG_OF_PERICENTER = 210.6859
MEAN_ANOMALY   = 149.3335

EPHEMERIS_TYPE = 0
CLASSIFICATION_TYPE = U
NORAD_CAT_ID   = 11574
ELEMENT_SET_NO = 999
REV_AT_EPOCH   = 43994
BSTAR          = .14125E-3
MEAN_MOTION_DOT = .441E-5
MEAN_MOTION_DDOT = 0

CCSDS_OMM_VERS = 2.0
CREATION_DATE  = 
ORIGINATOR     = 

OBJECT_NAME    = SL-14 R/B
OBJECT_ID      = 1980-005B
CENTER_NAME    = EARTH
REF_FRAME      = TEME
TIME_SYSTEM    = UTC
MEAN_ELEMENT_THEORY = SGP/SGP4

EPOCH          = 2026-04-05T12:08:26.715264
MEAN_MOTION    = 14.90963968
ECCENTRICITY   = .0017213
INCLINATION    = 82.5107
RA_OF_ASC_NODE = 281.7911
ARG_OF_PERICENTER = 75.5104
MEAN_ANOMALY   = 284.8024

EPHEMERIS_TYPE = 0
CLASSIFICATION_TYPE = U
NORAD_CAT_ID   = 11672
ELEMENT_SET_NO = 999
REV_AT_EPOCH   = 48048
BSTAR          = .79097E-4
MEAN_MOTION_DOT = .808E-5
MEAN_MOTION_DDOT = 0

CCSDS_OMM_VERS = 2.0
CREATION_DATE  = 
ORIGINATOR     = 

OBJECT_NAME    = SL-8 R/B
OBJECT_ID      = 1981-003B
CENTER_NAME    = EARTH
REF_FRAME      = TEME
TIME_SYSTEM    = UTC
MEAN_ELEMENT_THEORY = SGP/SGP4

EPOCH          = 2026-04-05T11:32:16.685088
MEAN_MOTION    = 15.12250511
ECCENTRICITY   = .0259537
INCLINATION    = 82.9349
RA_OF_ASC_NODE = 265.2248
ARG_OF_PERICENTER = 85.5930
MEAN_ANOMALY   = 277.4903

EPHEMERIS_TYPE = 0
CLASSIFICATION_TYPE = U
NORAD_CAT_ID   = 12139
ELEMENT_SET_NO = 999
REV_AT_EPOCH   = 31872
BSTAR          = .66332E-3
MEAN_MOTION_DOT = .26697E-3
MEAN_MOTION_DDOT = 0

CCSDS_OMM_VERS = 2.0
CREATION_DATE  = 
ORIGINATOR     = 

OBJECT_NAME    = SL-3 R/B
OBJECT_ID      = 1981-046B
CENTER_NAME    = EARTH
REF_FRAME      = TEME
TIME_SYSTEM    = UTC
MEAN_ELEMENT_THEORY = SGP/SGP4

EPOCH          = 2026-04-05T12:20:11.752224
MEAN_MOTION    = 15.42708300
ECCENTRICITY   = .0018054
INCLINATION    = 81.2293
RA_OF_ASC_NODE = 257.5103
ARG_OF_PERICENTER = 286.6795
MEAN_ANOMALY   = 73.2466

EPHEMERIS_TYPE = 0
CLASSIFICATION_TYPE = U
NORAD_CAT_ID   = 12465
ELEMENT_SET_NO = 999
REV_AT_EPOCH   = 44256
BSTAR          = .34623E-3
MEAN_MOTION_DOT = .15237E-3
MEAN_MOTION_DDOT = 0

CCSDS_OMM_VERS = 2.0
CREATION_DATE  = 
ORIGINATOR     = 

OBJECT_NAME    = SL-3 R/B
OBJECT_ID      = 1981-103B
CENTER_NAME    = EARTH
REF_FRAME      = TEME
TIME_SYSTEM    = UTC
MEAN_ELEMENT_THEORY = SGP/SGP4

EPOCH          = 2026-04-05T11:20:03.925824
MEAN_MOTION    = 15.21713827
ECCENTRICITY   = .0013122
INCLINATION    = 81.1605
RA_OF_ASC_NODE = 182.0136
ARG_OF_PERICENTER = 191.5623
MEAN_ANOMALY   = 168.5310

EPHEMERIS_TYPE = 0
CLASSIFICATION_TYPE = U
NORAD_CAT_ID   = 12904
ELEMENT_SET_NO = 999
REV_AT_EPOCH   = 97730
BSTAR          = .27118E-3
MEAN_MOTION_DOT = .6178E-4
MEAN_MOTION_DDOT = 0

CCSDS_OMM_VERS = 2.0
CREATION_DATE  = 
ORIGINATOR     = 

OBJECT_NAME    = SL-3 R/B
OBJECT_ID      = 1982-013B
CENTER_NAME    = EARTH
REF_FRAME      = TEME
TIME_SYSTEM    = UTC
MEAN_ELEMENT_THEORY = SGP/SGP4

EPOCH          = 2026-04-05T12:51:09.175968
MEAN_MOTION    = 15.22269503
ECCENTRICITY   = .0023536
INCLINATION    = 81.1718
RA_OF_ASC_NODE = 129.2994
ARG_OF_PERICENTER = 89.9273
MEAN_ANOMALY   = 270.4656

EPHEMERIS_TYPE = 0
CLASSIFICATION_TYPE = U
NORAD_CAT_ID   = 13068
ELEMENT_SET_NO = 999
REV_AT_EPOCH   = 40843
BSTAR          = .18865E-3
MEAN_MOTION_DOT = .4399E-4
MEAN_MOTION_DDOT = 0

CCSDS_OMM_VERS = 2.0
CREATION_DATE  = 
ORIGINATOR     = 

OBJECT_NAME    = SL-3 R/B
OBJECT_ID      = 1982-039B
CENTER_NAME    = EARTH
REF_FRAME      = TEME
TIME_SYSTEM    = UTC
MEAN_ELEMENT_THEORY = SGP/SGP4

EPOCH          = 2026-04-05T11:47:49.467264
MEAN_MOTION    = 15.10245505
ECCENTRICITY   = .0028137
INCLINATION    = 81.1553
RA_OF_ASC_NODE = 185.0553
ARG_OF_PERICENTER = 234.9555
MEAN_ANOMALY   = 124.9031

EPHEMERIS_TYPE = 0
CLASSIFICATION_TYPE = U
NORAD_CAT_ID   = 13154
ELEMENT_SET_NO = 999
REV_AT_EPOCH   = 38568
BSTAR          = .21474E-3
MEAN_MOTION_DOT = .3567E-4
MEAN_MOTION_DDOT = 0

